{
 "type": "FeatureCollection",
 "name": "states-demo",
 "features": [
  {
   "type": "Feature",
   "properties": {
    "code": "27",
    "name": "Maharashtra",
    "data_source": "SYNTHETIC_DEMO",
    "note": "SYNTHETIC_DEMO \u2014 hand-drawn approximate outline for the demo map. Not an official boundary; do not use for any legal or survey purpose."
   },
   "geometry": {
    "type": "Polygon",
    "coordinates": [
     [
      [
       72.65,
       19.0
      ],
      [
       73.0,
       17.5
      ],
      [
       73.65,
       15.75
      ],
      [
       74.05,
       15.8
      ],
      [
       74.05,
       16.95
      ],
      [
       75.3,
       16.95
      ],
      [
       76.4,
       17.4
      ],
      [
       77.5,
       18.2
      ],
      [
       77.8,
       18.9
      ],
      [
       78.6,
       19.1
      ],
      [
       79.4,
       18.9
      ],
      [
       80.3,
       18.6
      ],
      [
       80.9,
       19.5
      ],
      [
       80.55,
       20.8
      ],
      [
       80.4,
       21.3
      ],
      [
       79.4,
       21.75
      ],
      [
       78.4,
       21.75
      ],
      [
       77.4,
       21.4
      ],
      [
       76.2,
       21.1
      ],
      [
       75.0,
       21.6
      ],
      [
       74.2,
       21.95
      ],
      [
       73.4,
       21.3
      ],
      [
       72.85,
       20.4
      ],
      [
       72.65,
       19.0
      ]
     ]
    ]
   }
  },
  {
   "type": "Feature",
   "properties": {
    "code": "29",
    "name": "Karnataka",
    "data_source": "SYNTHETIC_DEMO",
    "note": "SYNTHETIC_DEMO \u2014 hand-drawn approximate outline for the demo map. Not an official boundary; do not use for any legal or survey purpose."
   },
   "geometry": {
    "type": "Polygon",
    "coordinates": [
     [
      [
       74.05,
       16.95
      ],
      [
       75.3,
       16.95
      ],
      [
       76.4,
       17.4
      ],
      [
       77.4,
       18.4
      ],
      [
       77.6,
       17.6
      ],
      [
       77.4,
       16.5
      ],
      [
       78.4,
       14.2
      ],
      [
       78.6,
       12.8
      ],
      [
       77.6,
       11.9
      ],
      [
       76.4,
       11.6
      ],
      [
       75.2,
       12.2
      ],
      [
       74.6,
       13.2
      ],
      [
       74.2,
       14.5
      ],
      [
       74.05,
       15.8
      ],
      [
       74.05,
       16.95
      ]
     ]
    ]
   }
  },
  {
   "type": "Feature",
   "properties": {
    "code": "24",
    "name": "Gujarat",
    "data_source": "SYNTHETIC_DEMO",
    "note": "SYNTHETIC_DEMO \u2014 hand-drawn approximate outline for the demo map. Not an official boundary; do not use for any legal or survey purpose."
   },
   "geometry": {
    "type": "Polygon",
    "coordinates": [
     [
      [
       68.2,
       23.6
      ],
      [
       68.7,
       22.4
      ],
      [
       69.5,
       22.2
      ],
      [
       70.9,
       20.8
      ],
      [
       72.6,
       20.2
      ],
      [
       72.9,
       20.4
      ],
      [
       73.4,
       21.3
      ],
      [
       74.3,
       22.2
      ],
      [
       74.4,
       23.4
      ],
      [
       73.6,
       24.5
      ],
      [
       72.4,
       24.7
      ],
      [
       71.0,
       24.6
      ],
      [
       69.6,
       24.3
      ],
      [
       68.2,
       23.6
      ]
     ]
    ]
   }
  },
  {
   "type": "Feature",
   "properties": {
    "code": "08",
    "name": "Rajasthan",
    "data_source": "SYNTHETIC_DEMO",
    "note": "SYNTHETIC_DEMO \u2014 hand-drawn approximate outline for the demo map. Not an official boundary; do not use for any legal or survey purpose."
   },
   "geometry": {
    "type": "Polygon",
    "coordinates": [
     [
      [
       71.0,
       24.6
      ],
      [
       72.4,
       24.7
      ],
      [
       73.6,
       24.5
      ],
      [
       74.4,
       23.4
      ],
      [
       75.2,
       23.0
      ],
      [
       76.2,
       24.2
      ],
      [
       77.4,
       25.2
      ],
      [
       78.2,
       26.6
      ],
      [
       77.5,
       27.4
      ],
      [
       76.9,
       28.2
      ],
      [
       75.5,
       29.6
      ],
      [
       74.6,
       30.0
      ],
      [
       73.4,
       29.9
      ],
      [
       72.3,
       28.9
      ],
      [
       70.6,
       27.9
      ],
      [
       69.5,
       27.0
      ],
      [
       70.4,
       25.7
      ],
      [
       71.0,
       24.6
      ]
     ]
    ]
   }
  },
  {
   "type": "Feature",
   "properties": {
    "code": "09",
    "name": "Uttar Pradesh",
    "data_source": "SYNTHETIC_DEMO",
    "note": "SYNTHETIC_DEMO \u2014 hand-drawn approximate outline for the demo map. Not an official boundary; do not use for any legal or survey purpose."
   },
   "geometry": {
    "type": "Polygon",
    "coordinates": [
     [
      [
       77.1,
       30.4
      ],
      [
       77.6,
       29.8
      ],
      [
       77.15,
       28.9
      ],
      [
       77.35,
       28.2
      ],
      [
       77.5,
       27.4
      ],
      [
       78.2,
       26.6
      ],
      [
       78.9,
       25.3
      ],
      [
       78.3,
       24.4
      ],
      [
       79.0,
       24.0
      ],
      [
       80.3,
       25.0
      ],
      [
       81.6,
       24.4
      ],
      [
       82.7,
       24.1
      ],
      [
       83.4,
       24.5
      ],
      [
       84.6,
       25.6
      ],
      [
       84.1,
       26.7
      ],
      [
       83.3,
       27.4
      ],
      [
       81.9,
       27.9
      ],
      [
       80.4,
       28.6
      ],
      [
       79.4,
       29.2
      ],
      [
       78.3,
       30.4
      ],
      [
       77.1,
       30.4
      ]
     ]
    ]
   }
  }
 ]
}